METEOSAT-5 (MOP-2)      
1 21140U 91015B   08208.61009387  .00000012  00000-0  10000-3 0  4077
2 21140  10.1935  52.5086 0005645 122.2360 237.8704  0.98450195 65879
METEOSAT-6 (MOP-3)      
1 22912U 93073B   08207.94269763 -.00000017  00000-0  10000-3 0  6160
2 22912   7.5929  63.6959 0000334  28.0392 258.9526  1.00273642 52191
HIMAWARI-5 (GMS-5)      
1 23522U 95011B   08209.58255494 -.00000074  00000-0  10000-3 0  8570
2 23522   6.7322  66.6564 0007220 331.4808  28.4963  0.99402815 48717
GOES 10                 
1 24786U 97019A   08210.41082341 -.00000289  00000-0  10000-3 0  4884
2 24786   2.8165  78.8129 0002802 102.0810 213.8184  1.00267138 41257
ORBVIEW 2 (SEASTAR)     
1 24883U 97037A   08210.38295945  .00000002  00000-0  10314-4 0  4098
2 24883  98.3077 326.9412 0002322 112.0775 248.0671 14.59949383585191
METEOSAT-7              
1 24932U 97049B   08207.83046756  .00000071  00000-0  10000-3 0  4060
2 24932   4.3862  73.6049 0000297 326.2023 260.3436  1.00273021 39912
NOAA 15                 
1 25338U 98030A   08210.37148603  .00000111  00000-0  66142-4 0  5604
2 25338  98.5567 201.1863 0009540 284.3866  75.6299 14.24717152530661
GOES 11                 
1 26352U 00022A   08207.60437865  .00000096  00000-0  00000+0 0  9037
2 26352   0.3879 263.2954 0004892 291.6231 191.0543  1.00279349 30130
FENGYUN 2B              
1 26382U 00032A   08209.39178858 -.00000112  00000-0  10000-3 0   725
2 26382   3.5222  76.5712 0004674 164.4390 195.4425  1.00105565 29614
NOAA 16                 
1 26536U 00055A   08210.36300483 -.00000015  00000-0  16954-4 0   302
2 26536  99.1587 200.4455 0011420 107.7374 252.5040 14.12491766404580
GOES 12                 
1 26871U 01031A   08205.39064221 -.00000241  00000-0  00000+0 0  6490
2 26871   0.0841  99.3748 0003460 353.6706 274.2948  1.00269320 25716
FENGYUN 1D              
1 27431U 02024B   08210.46572970 -.00000002  00000-0  22721-4 0  1955
2 27431  98.6047 208.1179 0014403 252.7933 107.1666 14.09272493319218
NOAA 17                 
1 27453U 02032A   08210.50890804  .00000096  00000-0  60388-4 0   257
2 27453  98.5319 273.9343 0011607 353.4088   6.6942 14.23990972316682
METEOSAT-8 (MSG-1)      
1 27509U 02040B   08206.05169815  .00000073  00000-0  00000+0 0  8460
2 27509   0.6099  37.1418 0000988  26.1966 266.8019  1.00278699 21702
KALPANA-1 (METSAT 1)    
1 27525U 02043A   08209.65966622 -.00000076  00000-0  10000-3 0  5029
2 27525   0.0988  89.4865 0007954   6.9893 160.7060  1.00272522 21541
INSAT-3A                
1 27714U 03013A   08208.76218737 -.00000254  00000-0  10000-3 0  1850
2 27714   0.0377 105.6254 0001013  77.7465 129.3738  1.00271151 19432
FENGYUN 2C              
1 28451U 04042A   08209.66207135 -.00000330  00000-0  00000-0 0   863
2 28451   0.5783  78.4092 0001263  56.5759 153.6655  1.00274665 13796
HIMAWARI 6 (MTSAT-1R)   
1 28622U 05006A   08209.35582192 -.00000278  00000-0  10000-3 0  7221
2 28622   0.0297 107.7884 0001094 220.4496 245.2990  1.00269383 12495
NOAA 18                 
1 28654U 05018A   08210.53068044  .00000393  00000-0  24215-3 0  5213
2 28654  98.8681 150.9546 0013976 193.2833 166.7954 14.11182188164309
METEOSAT-9 (MSG-2)      
1 28912U 05049B   08206.91300500  .00000004  00000-0  00000-0 0  3947
2 28912   0.4389 227.3687 0000708 213.7979 190.1797  1.00274910  9564
MTSAT-2                 
1 28937U 06004A   08209.58834358 -.00000242  00000-0  10000-3 0  4439
2 28937   0.0356 252.3687 0002711 196.5898 213.4368  1.00269056  8975
FORMOSAT 3A             
1 29047U 06011A   08210.37383616 -.00000018  00000-0  95785-5 0  7298
2 29047  71.9834 320.2938 0052191 340.2892  19.6211 14.27066028121537
FORMOSAT 3B             
1 29048U 06011B   08210.33667607  .00000389  00000-0  17471-3 0  7643
2 29048  71.9699 236.2104 0046519 289.8156  69.7918 14.27052153124005
FORMOSAT 3C             
1 29049U 06011C   08210.63511041  .00000361  00000-0  16364-3 0  7052
2 29049  72.0224  22.8402 0036226 354.8646   5.2095 14.27066546119829
FORMOSAT 3D             
1 29050U 06011D   08210.63208144  .00001096  00000-0  26646-3 0  9840
2 29050  72.0092 231.0584 0054288 265.8865  93.6053 14.53923903124213
FORMOSAT 3E             
1 29051U 06011E   08210.45594630  .00000372  00000-0  16522-3 0  7654
2 29051  72.0092 292.7774 0070762 224.4525 135.0897 14.27063060122381
FORMOSAT 3F             
1 29052U 06011F   08210.50381383  .00000359  00000-0  16273-3 0  7849
2 29052  72.0390 353.6202 0041992 325.9274  33.9120 14.27074466120696
GOES 13                 
1 29155U 06018A   08211.23696605 -.00000094  00000-0  10000-3 0  4595
2 29155   0.4232  82.7044 0000874  93.9853 110.6461  1.00271853  8011
METOP-A                 
1 29499U 06044A   08210.81640125 -.00000089  00000-0 -20586-4 0  5579
2 29499  98.7204 269.3936 0001153  83.4772 276.6519 14.21482178 92076
FENGYUN 2D              
1 29640U 06053A   08209.84271927 -.00000200  00000-0  10000-3 0  4367
2 29640   1.0974 260.7406 0001004 322.3927 113.0262  1.00272693  6058
FENGYUN 3A              
1 32958U 08026A   08210.74914124  .00000166  00000-0  10000-3 0   679
2 32958  98.8099 278.6612 0001114  35.7783 324.3428 14.19566957  8898
